YAOGAN-7                
1 36110U 09069A   26116.43299530  .00000507  00000+0  77429-4 0  9990
2 36110  98.0136   2.6037 0023987 203.3791 156.6331 14.77957302881986
XIWANG-1 (HOPE-1)       
1 36122U 09072B   26116.48848566 -.00000371  00000+0 -85650-3 0  9996
2 36122 100.3986  71.1560 0007549 357.0329   3.0738 13.16436176786209
RADUGA-1M 2             
1 36358U 10002A   26116.48933716 -.00000104  00000+0  00000+0 0  9999
2 36358   3.4885  79.4755 0007406 261.9183 240.7436  0.98968750 49516
COSMOS 2463             
1 36519U 10017A   26116.46532308  .00000063  00000+0  53089-4 0  9997
2 36519  82.9570 287.7161 0034791 273.7203 114.5198 13.71662147800844
CARTOSAT-2B             
1 36795U 10035A   26116.50386279  .00001008  00000+0  14462-3 0  9993
2 36795  98.0002 167.3716 0011342   5.5388 354.5947 14.78664685852212
AISSAT 1                
1 36797U 10035C   26116.28292698  .00001847  00000+0  16533-3 0  9993
2 36797  98.0977  13.6936 0007614 223.3999 136.6623 14.97144487856451
TISAT 1                 
1 36799U 10035E   26116.27728762  .00024608  00000+0  85611-3 0  9993
2 36799  98.0677  58.3169 0004678  79.8144 280.3622 15.29696241859766
YAOGAN-10               
1 36834U 10038A   26116.56115175  .00001304  00000+0  15846-3 0  9997
2 36834  97.9025 140.3742 0001341  84.9073  66.5448 14.85184438849548
SHIJIAN-6 04B (SJ-6 04B)
1 37180U 10051B   26116.49931696  .00002009  00000+0  16961-3 0  9995
2 37180  97.8734 121.3757 0013208 115.7337 244.5250 14.99228338847938
FENGYUN 3B              
1 37214U 10059A   26116.55715038  .00000445  00000+0  25357-3 0  9999
2 37214  98.9674 162.3416 0021665 335.8658 185.2567 14.14831055800120
COSMO-SKYMED 4          
1 37216U 10060A   26116.52817066  .00000286  00000+0  42474-4 0  9997
2 37216  97.8891 300.8756 0001337  80.1646 279.9718 14.82159961836917
O/OREOS (USA 219)       
1 37224U 10062C   26116.49164329  .00002283  00000+0  22213-3 0  9998
2 37224  71.9702 197.4159 0014218 172.8526 187.2850 14.93532348108922
ELEKTRO-L 1 (GOMS 2)    
1 37344U 11001A   26116.33351910 -.00000179  00000+0  00000+0 0  9991
2 37344   9.5717  55.0246 0003997  17.7793 171.5954  1.00159279 55967
RESOURCESAT-2           
1 37387U 11015A   26116.49852169  .00000136  00000+0  82060-4 0  9995
2 37387  98.7667 184.2904 0012096  51.2860 308.9397 14.21599521778832
YOUTHSAT                
1 37388U 11015B   26116.51003144  .00000221  00000+0  11066-3 0  9992
2 37388  98.3653  92.9052 0015385 130.3580 341.6864 14.25607571780278
APRIZESAT 6             
1 37793U 11044F   26116.32854837  .00000712  00000+0  10805-3 0  9991
2 37793  98.2391  25.7647 0041841 251.4435 230.2850 14.76844180789496
JUGNU                   
1 37839U 11058B   26116.56355667  .00000476  00000+0  10872-3 0  9991
2 37839  19.9609 262.0584 0018406 226.3963 205.9743 14.13760763751712
