[{"OBJECT_NAME":"YAOGAN-7","OBJECT_ID":"2009-069A","EPOCH":"2026-04-26T10:23:30.793920","MEAN_MOTION":14.77957302,"ECCENTRICITY":0.0023987,"INCLINATION":98.0136,"RA_OF_ASC_NODE":2.6037,"ARG_OF_PERICENTER":203.3791,"MEAN_ANOMALY":156.6331,"EPHEMERIS_TYPE":0,"CLASSIFICATION_TYPE":"U","NORAD_CAT_ID":36110,"ELEMENT_SET_NO":999,"REV_AT_EPOCH":88198,"BSTAR":7.7429e-5,"MEAN_MOTION_DOT":5.07e-6,"MEAN_MOTION_DDOT":0},{"OBJECT_NAME":"XIWANG-1 (HOPE-1)","OBJECT_ID":"2009-072B","EPOCH":"2026-04-26T11:43:25.161024","MEAN_MOTION":13.16436176,"ECCENTRICITY":0.0007549,"INCLINATION":100.3986,"RA_OF_ASC_NODE":71.156,"ARG_OF_PERICENTER":357.0329,"MEAN_ANOMALY":3.0738,"EPHEMERIS_TYPE":0,"CLASSIFICATION_TYPE":"U","NORAD_CAT_ID":36122,"ELEMENT_SET_NO":999,"REV_AT_EPOCH":78620,"BSTAR":-0.0008565,"MEAN_MOTION_DOT":-3.71e-6,"MEAN_MOTION_DDOT":0},{"OBJECT_NAME":"RADUGA-1M 2","OBJECT_ID":"2010-002A","EPOCH":"2026-04-26T11:44:38.730624","MEAN_MOTION":0.9896875,"ECCENTRICITY":0.0007406,"INCLINATION":3.4885,"RA_OF_ASC_NODE":79.4755,"ARG_OF_PERICENTER":261.9183,"MEAN_ANOMALY":240.7436,"EPHEMERIS_TYPE":0,"CLASSIFICATION_TYPE":"U","NORAD_CAT_ID":36358,"ELEMENT_SET_NO":999,"REV_AT_EPOCH":4951,"BSTAR":0,"MEAN_MOTION_DOT":-1.04e-6,"MEAN_MOTION_DDOT":0},{"OBJECT_NAME":"COSMOS 2463","OBJECT_ID":"2010-017A","EPOCH":"2026-04-26T11:10:03.914112","MEAN_MOTION":13.71662147,"ECCENTRICITY":0.0034791,"INCLINATION":82.957,"RA_OF_ASC_NODE":287.7161,"ARG_OF_PERICENTER":273.7203,"MEAN_ANOMALY":114.5198,"EPHEMERIS_TYPE":0,"CLASSIFICATION_TYPE":"U","NORAD_CAT_ID":36519,"ELEMENT_SET_NO":999,"REV_AT_EPOCH":80084,"BSTAR":5.3089e-5,"MEAN_MOTION_DOT":6.3e-7,"MEAN_MOTION_DDOT":0},{"OBJECT_NAME":"CARTOSAT-2B","OBJECT_ID":"2010-035A","EPOCH":"2026-04-26T12:05:33.745056","MEAN_MOTION":14.78664685,"ECCENTRICITY":0.0011342,"INCLINATION":98.0002,"RA_OF_ASC_NODE":167.3716,"ARG_OF_PERICENTER":5.5388,"MEAN_ANOMALY":354.5947,"EPHEMERIS_TYPE":0,"CLASSIFICATION_TYPE":"U","NORAD_CAT_ID":36795,"ELEMENT_SET_NO":999,"REV_AT_EPOCH":85221,"BSTAR":0.00014462,"MEAN_MOTION_DOT":1.008e-5,"MEAN_MOTION_DDOT":0},{"OBJECT_NAME":"AISSAT 1","OBJECT_ID":"2010-035C","EPOCH":"2026-04-26T06:47:24.891072","MEAN_MOTION":14.97144487,"ECCENTRICITY":0.0007614,"INCLINATION":98.0977,"RA_OF_ASC_NODE":13.6936,"ARG_OF_PERICENTER":223.3999,"MEAN_ANOMALY":136.6623,"EPHEMERIS_TYPE":0,"CLASSIFICATION_TYPE":"U","NORAD_CAT_ID":36797,"ELEMENT_SET_NO":999,"REV_AT_EPOCH":85645,"BSTAR":0.00016533,"MEAN_MOTION_DOT":1.847e-5,"MEAN_MOTION_DDOT":0},{"OBJECT_NAME":"TISAT 1","OBJECT_ID":"2010-035E","EPOCH":"2026-04-26T06:39:17.650368","MEAN_MOTION":15.29696241,"ECCENTRICITY":0.0004678,"INCLINATION":98.0677,"RA_OF_ASC_NODE":58.3169,"ARG_OF_PERICENTER":79.8144,"MEAN_ANOMALY":280.3622,"EPHEMERIS_TYPE":0,"CLASSIFICATION_TYPE":"U","NORAD_CAT_ID":36799,"ELEMENT_SET_NO":999,"REV_AT_EPOCH":85976,"BSTAR":0.00085611,"MEAN_MOTION_DOT":0.00024608,"MEAN_MOTION_DDOT":0},{"OBJECT_NAME":"YAOGAN-10","OBJECT_ID":"2010-038A","EPOCH":"2026-04-26T13:28:03.511200","MEAN_MOTION":14.85184438,"ECCENTRICITY":0.0001341,"INCLINATION":97.9025,"RA_OF_ASC_NODE":140.3742,"ARG_OF_PERICENTER":84.9073,"MEAN_ANOMALY":66.5448,"EPHEMERIS_TYPE":0,"CLASSIFICATION_TYPE":"U","NORAD_CAT_ID":36834,"ELEMENT_SET_NO":999,"REV_AT_EPOCH":84954,"BSTAR":0.00015846,"MEAN_MOTION_DOT":1.304e-5,"MEAN_MOTION_DDOT":0},{"OBJECT_NAME":"SHIJIAN-6 04B (SJ-6 04B)","OBJECT_ID":"2010-051B","EPOCH":"2026-04-26T11:59:00.985344","MEAN_MOTION":14.99228338,"ECCENTRICITY":0.0013208,"INCLINATION":97.8734,"RA_OF_ASC_NODE":121.3757,"ARG_OF_PERICENTER":115.7337,"MEAN_ANOMALY":244.525,"EPHEMERIS_TYPE":0,"CLASSIFICATION_TYPE":"U","NORAD_CAT_ID":37180,"ELEMENT_SET_NO":999,"REV_AT_EPOCH":84793,"BSTAR":0.00016961,"MEAN_MOTION_DOT":2.009e-5,"MEAN_MOTION_DDOT":0},{"OBJECT_NAME":"FENGYUN 3B","OBJECT_ID":"2010-059A","EPOCH":"2026-04-26T13:22:17.792832","MEAN_MOTION":14.14831055,"ECCENTRICITY":0.0021665,"INCLINATION":98.9674,"RA_OF_ASC_NODE":162.3416,"ARG_OF_PERICENTER":335.8658,"MEAN_ANOMALY":185.2567,"EPHEMERIS_TYPE":0,"CLASSIFICATION_TYPE":"U","NORAD_CAT_ID":37214,"ELEMENT_SET_NO":999,"REV_AT_EPOCH":80012,"BSTAR":0.00025357,"MEAN_MOTION_DOT":4.45e-6,"MEAN_MOTION_DDOT":0},{"OBJECT_NAME":"COSMO-SKYMED 4","OBJECT_ID":"2010-060A","EPOCH":"2026-04-26T12:40:33.945024","MEAN_MOTION":14.82159961,"ECCENTRICITY":0.0001337,"INCLINATION":97.8891,"RA_OF_ASC_NODE":300.8756,"ARG_OF_PERICENTER":80.1646,"MEAN_ANOMALY":279.9718,"EPHEMERIS_TYPE":0,"CLASSIFICATION_TYPE":"U","NORAD_CAT_ID":37216,"ELEMENT_SET_NO":999,"REV_AT_EPOCH":83691,"BSTAR":4.2474e-5,"MEAN_MOTION_DOT":2.86e-6,"MEAN_MOTION_DDOT":0},{"OBJECT_NAME":"O/OREOS (USA 219)","OBJECT_ID":"2010-062C","EPOCH":"2026-04-26T11:47:57.980256","MEAN_MOTION":14.93532348,"ECCENTRICITY":0.0014218,"INCLINATION":71.9702,"RA_OF_ASC_NODE":197.4159,"ARG_OF_PERICENTER":172.8526,"MEAN_ANOMALY":187.285,"EPHEMERIS_TYPE":0,"CLASSIFICATION_TYPE":"U","NORAD_CAT_ID":37224,"ELEMENT_SET_NO":999,"REV_AT_EPOCH":10892,"BSTAR":0.00022213,"MEAN_MOTION_DOT":2.283e-5,"MEAN_MOTION_DDOT":0},{"OBJECT_NAME":"ELEKTRO-L 1 (GOMS 2)","OBJECT_ID":"2011-001A","EPOCH":"2026-04-26T08:00:16.050240","MEAN_MOTION":1.00159279,"ECCENTRICITY":0.0003997,"INCLINATION":9.5717,"RA_OF_ASC_NODE":55.0246,"ARG_OF_PERICENTER":17.7793,"MEAN_ANOMALY":171.5954,"EPHEMERIS_TYPE":0,"CLASSIFICATION_TYPE":"U","NORAD_CAT_ID":37344,"ELEMENT_SET_NO":999,"REV_AT_EPOCH":5596,"BSTAR":0,"MEAN_MOTION_DOT":-1.79e-6,"MEAN_MOTION_DDOT":0},{"OBJECT_NAME":"RESOURCESAT-2","OBJECT_ID":"2011-015A","EPOCH":"2026-04-26T11:57:52.274016","MEAN_MOTION":14.21599521,"ECCENTRICITY":0.0012096,"INCLINATION":98.7667,"RA_OF_ASC_NODE":184.2904,"ARG_OF_PERICENTER":51.286,"MEAN_ANOMALY":308.9397,"EPHEMERIS_TYPE":0,"CLASSIFICATION_TYPE":"U","NORAD_CAT_ID":37387,"ELEMENT_SET_NO":999,"REV_AT_EPOCH":77883,"BSTAR":8.206e-5,"MEAN_MOTION_DOT":1.36e-6,"MEAN_MOTION_DDOT":0},{"OBJECT_NAME":"YOUTHSAT","OBJECT_ID":"2011-015B","EPOCH":"2026-04-26T12:14:26.716416","MEAN_MOTION":14.25607571,"ECCENTRICITY":0.0015385,"INCLINATION":98.3653,"RA_OF_ASC_NODE":92.9052,"ARG_OF_PERICENTER":130.358,"MEAN_ANOMALY":341.6864,"EPHEMERIS_TYPE":0,"CLASSIFICATION_TYPE":"U","NORAD_CAT_ID":37388,"ELEMENT_SET_NO":999,"REV_AT_EPOCH":78027,"BSTAR":0.00011066,"MEAN_MOTION_DOT":2.21e-6,"MEAN_MOTION_DDOT":0},{"OBJECT_NAME":"APRIZESAT 6","OBJECT_ID":"2011-044F","EPOCH":"2026-04-26T07:53:06.579168","MEAN_MOTION":14.7684418,"ECCENTRICITY":0.0041841,"INCLINATION":98.2391,"RA_OF_ASC_NODE":25.7647,"ARG_OF_PERICENTER":251.4435,"MEAN_ANOMALY":230.285,"EPHEMERIS_TYPE":0,"CLASSIFICATION_TYPE":"U","NORAD_CAT_ID":37793,"ELEMENT_SET_NO":999,"REV_AT_EPOCH":78949,"BSTAR":0.00010805,"MEAN_MOTION_DOT":7.12e-6,"MEAN_MOTION_DDOT":0},{"OBJECT_NAME":"JUGNU","OBJECT_ID":"2011-058B","EPOCH":"2026-04-26T13:31:31.296288","MEAN_MOTION":14.13760763,"ECCENTRICITY":0.0018406,"INCLINATION":19.9609,"RA_OF_ASC_NODE":262.0584,"ARG_OF_PERICENTER":226.3963,"MEAN_ANOMALY":205.9743,"EPHEMERIS_TYPE":0,"CLASSIFICATION_TYPE":"U","NORAD_CAT_ID":37839,"ELEMENT_SET_NO":999,"REV_AT_EPOCH":75171,"BSTAR":0.00010872,"MEAN_MOTION_DOT":4.76e-6,"MEAN_MOTION_DDOT":0}]
